     3.02           N: GNSS NAV DATA    G: GPS              RINEX VERSION / TYPE
Spider v7.5.1.8670  SMO                 20211207 002902 UTC PGM / RUN BY / DATE
GPSA   1.0245D-08 -1.4901D-08 -5.9605D-08  1.1921D-07       IONOSPHERIC CORR
GPSB   9.8304D+04 -1.4746D+05 -1.9661D+05  8.5197D+05       IONOSPHERIC CORR
GPUT -9.3132257462D-10-8.881784197D-16 319488 2187          TIME SYSTEM CORR
    18    18  2185     7                                    LEAP SECONDS
                                                            END OF HEADER
G13 2021 12 06 23 59 44 2.255635336041D-04 5.798028723802D-12 0.000000000000D+00
     3.000000000000D+01-2.656250000000D+00 4.595191338552D-09 1.536159219197D-01
    -1.508742570877D-07 5.745556205511D-03 7.528811693192D-06 5.153669813156D+03
     1.727840000000D+05 1.862645149231D-09 1.557433032423D+00 6.519258022308D-08
     9.678982675679D-01 2.400937500000D+02 9.796880633459D-01-7.929259027151D-09
     5.210931131039D-10 1.000000000000D+00 2.187000000000D+03 0.000000000000D+00
     2.000000000000D+00 0.000000000000D+00-1.117587089539D-08 3.000000000000D+01
     1.655100000000D+05                   
G02 2021 12 07 00 00 00-6.447816267610D-04-1.364242052659D-12 0.000000000000D+00
     2.600000000000D+01-5.706250000000D+01 4.741983250511D-09-1.338747775373D+00
    -2.579763531685D-06 2.058958308771D-02 7.245689630508D-07 5.153806322098D+03
     1.728000000000D+05-2.868473529816D-07-7.460920605862D-01 4.861503839493D-07
     9.647616673388D-01 3.711562500000D+02-1.473329159605D+00-8.647860205713D-09
    -2.082229527689D-10 1.000000000000D+00 2.187000000000D+03 0.000000000000D+00
     2.000000000000D+00 0.000000000000D+00-1.769512891769D-08 2.600000000000D+01
     1.655400000000D+05                   
G15 2021 12 07 00 00 00-1.010741107166D-04 2.842170943040D-12 0.000000000000D+00
     6.400000000000D+01-7.937500000000D+00 5.347722709104D-09-2.151136903144D-01
    -2.719461917877D-07 1.389664330054D-02 8.648261427879D-06 5.153704658508D+03
     1.728000000000D+05-1.676380634308D-08 1.301408867280D+00 1.844018697739D-07
     9.292361442210D-01 1.985625000000D+02 1.061562523620D+00-8.478210133944D-09
     6.407409602893D-10 1.000000000000D+00 2.187000000000D+03 0.000000000000D+00
     2.000000000000D+00 0.000000000000D+00-1.071020960808D-08 6.400000000000D+01
     1.655400000000D+05                   
G12 2021 12 07 00 00 00-1.369956880808D-04-5.570655048359D-12 0.000000000000D+00
     1.650000000000D+02 8.825000000000D+01 4.033382072777D-09-2.847464657064D+00
     4.611909389496D-06 8.409962989390D-03 1.136213541031D-05 5.153647481918D+03
     1.728000000000D+05 9.313225746155D-08-2.693527592442D+00-5.029141902924D-08
     9.715938385547D-01 1.635625000000D+02 1.229450686025D+00-7.513170530160D-09
    -3.214419563857D-10 1.000000000000D+00 2.187000000000D+03 0.000000000000D+00
     2.800000000000D+00 0.000000000000D+00-1.257285475731D-08 1.650000000000D+02
     1.655400000000D+05                   
G30 2021 12 07 00 00 00-4.972931928933D-04-2.955857780762D-12 0.000000000000D+00
     1.540000000000D+02-6.312500000000D+00 5.437726713353D-09-2.192086054600D+00
    -5.494803190231D-07 5.347455968149D-03 6.681308150291D-06 5.153598848343D+03
     1.728000000000D+05 4.470348358154D-08 2.492219224511D+00-7.823109626770D-08
     9.362696232050D-01 2.395000000000D+02-2.750481891308D+00-8.238557391849D-09
    -2.764400930388D-10 1.000000000000D+00 2.187000000000D+03 0.000000000000D+00
     2.000000000000D+00 0.000000000000D+00 3.725290298462D-09 1.540000000000D+02
     1.655400000000D+05                   
G25 2021 12 07 00 00 00 2.518384717405D-04 5.798028723802D-12 0.000000000000D+00
     9.000000000000D+01 7.450000000000D+01 4.292321609256D-09-3.048876146089D+00
     3.751367330551D-06 1.013498427346D-02 1.140125095844D-05 5.153747415543D+03
     1.728000000000D+05 2.793967723846D-08-2.769366117089D+00-1.378357410431D-07
     9.590274219930D-01 1.559687500000D+02 9.628178749206D-01-7.611388852524D-09
    -3.653723712471D-10 1.000000000000D+00 2.187000000000D+03 0.000000000000D+00
     2.000000000000D+00 0.000000000000D+00 5.587935447693D-09 9.000000000000D+01
     1.655400000000D+05                   
G18 2021 12 07 00 00 00 2.838699147105D-04-6.366462912410D-12 0.000000000000D+00
     2.100000000000D+01-8.575000000000D+01 4.300893419185D-09-1.305599736978D+00
    -4.526227712631D-06 2.095173578709D-03 1.471489667892D-06 5.153640087128D+03
     1.728000000000D+05-1.117587089539D-08-6.494376848292D-01-5.029141902924D-08
     9.701906909194D-01 3.560937500000D+02 3.073933514584D+00-8.227842407393D-09
    -1.921508646641D-10 1.000000000000D+00 2.187000000000D+03 0.000000000000D+00
     2.000000000000D+00 0.000000000000D+00-8.381903171539D-09 5.330000000000D+02
     1.655400000000D+05                   
G24 2021 12 07 00 00 00 2.731434069574D-04 2.501110429876D-12 0.000000000000D+00
     3.700000000000D+01-6.531250000000D+00 5.581660911247D-09-1.195668071803D+00
    -2.197921276093D-07 1.212893123738D-02 5.651265382767D-06 5.153689317703D+03
     1.728000000000D+05 2.644956111908D-07 2.396468702449D+00 7.450580596924D-08
     9.344658642312D-01 2.534375000000D+02 7.878963871385D-01-8.394278161461D-09
    -1.807218125149D-10 1.000000000000D+00 2.187000000000D+03 0.000000000000D+00
     2.000000000000D+00 0.000000000000D+00 2.328306436539D-09 3.700000000000D+01
     1.655400000000D+05                   
G23 2021 12 07 00 00 00 2.471311017871D-05-4.206412995700D-12 0.000000000000D+00
     5.100000000000D+01-1.124375000000D+02 3.906591494740D-09-2.094759855659D+00
    -5.831941962242D-06 1.924501382746D-03 9.972602128983D-06 5.153699796677D+03
     1.728000000000D+05-2.048909664154D-08 3.496774229768D-01 2.235174179077D-08
     9.668463402309D-01 1.916250000000D+02 2.839151079410D+00-7.678891300600D-09
     2.232235785105D-10 1.000000000000D+00 2.187000000000D+03 0.000000000000D+00
     2.000000000000D+00 0.000000000000D+00-8.381903171539D-09 8.190000000000D+02
     1.655400000000D+05                   
